#cP2014 10 27  0  0  0.00000000      96 ORBIT IGb08 HLM  IGS
## 1816  86400.00000000   900.00000000 56957 0.0000000000000
+   31   G01G02G04G05G06G07G08G09G10G11G12G13G14G15G16G17G18
+        G19G20G21G22G23G24G25G26G27G28G29G30G31G32  0  0  0
+          0  0  0  0  0  0  0  0  0  0  0  0  0  0  0  0  0
+          0  0  0  0  0  0  0  0  0  0  0  0  0  0  0  0  0
+          0  0  0  0  0  0  0  0  0  0  0  0  0  0  0  0  0
++         3  2  2  2  2  2  2  2  2  2  2  2  2  2  2  2  2
++         3  2  2  2  2  2  2  2  2  2  3  2  2  2  0  0  0
++         0  0  0  0  0  0  0  0  0  0  0  0  0  0  0  0  0
++         0  0  0  0  0  0  0  0  0  0  0  0  0  0  0  0  0
++         0  0  0  0  0  0  0  0  0  0  0  0  0  0  0  0  0
%c G  cc GPS ccc cccc cccc cccc cccc ccccc ccccc ccccc ccccc
%c cc cc ccc ccc cccc cccc cccc cccc ccccc ccccc ccccc ccccc
%f  1.2500000  1.025000000  0.00000000000  0.000000000000000
%f  0.0000000  0.000000000  0.00000000000  0.000000000000000
%i    0    0    0    0      0      0      0      0         0
%i    0    0    0    0      0      0      0      0         0
/* FINAL ORBIT COMBINATION FROM WEIGHTED AVERAGE OF:        
/* cod emr esa gfz grg jpl mit ngs sio                      
/* REFERENCED TO IGS TIME (IGST) AND TO WEIGHTED MEAN POLE: 
/* PCV:IGS08_1816 OL/AL:FES2004  NONE     Y  ORB:CMB CLK:CMB
*  2014 10 27  7 30  0.00000000
PG01  -7670.113618 -13912.243960 -21357.288281     22.941920  8  7  7 127       
PG02 -17132.120892  14074.178887  14576.507308    526.542635  6  6  7 129       
PG04  -3582.720664 -15450.592421 -21616.307943     -2.145160  4  7  4 100       
PG05  -5745.538901  16013.357851  20307.571974   -324.953742  3  6  4 124       
PG06 -25582.806956   6381.730918   3108.638574      3.302155  3  4  3  96       
PG07 -20201.729492  -8011.321214  15604.977984    406.490420  6  8  5 122       
PG08  -7026.387194 -13915.391808  21788.982098     16.039098  4  9  6 128       
PG09 -10844.364097 -12503.549001  20773.725336      4.504407  7 10  6 110       
PG10 -18231.916915   -636.185277  19081.267090   -147.295204  6  6  5  99       
PG11  -1016.944101 -17868.379598 -20113.107572   -531.821079  5  9  5 116       
PG12   7933.979262  22922.933120 -11141.145800    241.787554  4  9  5 120       
PG13 -16194.399163    537.029700  20960.104677    -54.887253  5  5  2 111       
PG14  17201.065062  -5661.826420 -19145.077200    121.501178  6  5  3 124       
PG15  -1178.044855  24772.221165  -9133.466951   -211.034157  6  9  7  95       
PG16   6090.714519 -15053.062211  20877.166049   -185.222553  5  8  7 120       
PG17 -16761.943309   4763.333709 -19706.100090   -133.503151  5  7  4 123       
PG18  20486.400507  14721.809277  -8332.113164    354.132632  5  8  4  92       
PG19   7467.290629 -24551.414947  -6027.393769   -485.383030  7 11  5 105       
PG20 -14102.714323 -21787.414730  -6018.838495    249.800168  7  6  5 114       
PG21  23935.119989   4671.616328  11670.706447   -391.593210  7  8  4 127       
PG22  19412.987374   2220.953426 -17846.107892    281.026287  5  7  2 104       
PG23  -3787.740306 -21029.887323  15627.934555    -62.851599  6 10  7 112       
PG24   3678.488636  14923.603413 -21680.506050    -37.499203  9  8  5 124       
PG25  17250.118838  20276.882046    813.432912     16.826759  5  7  6 114       
PG26 -12266.553994  23337.155161    801.174533   -102.310334  4  4  4 113       
PG27  12534.725999 -22757.004818   5320.936880     25.304093  3  7  6 127       
PG28 -18971.084113  -8641.862651 -15918.677817    394.110355  5  5  2 114       
PG29   8874.447385  14496.785001  20444.750654    569.317198  5  9  6 128       
PG30 -25899.717642  -1890.893365   5701.476745    -75.881917  5  6  4 101       
PG31  25224.293185  -7014.494897   5544.004475    329.955993  5  8  4 119       
PG32   -921.511856 -21536.575966 -15845.924683   -308.168819  5  6 10 113       
*  2014 10 27  7 45  0.00000000
PG01  -5263.777025 -14395.004917 -21749.296699     22.942272  8  7  7 132       
PG02 -18671.342180  14142.167119  12365.653581    526.544733  6  6  7 127       
PG04  -1217.866988 -15918.395580 -21515.545689     -2.145668  4  6  4 113       
PG05  -7384.833361  14279.037472  21071.082261   -324.949589  2  7  3 126       
PG06 -25823.279503   6168.281294    260.221954      3.305528  3  5  2 107       
PG07 -18386.410485  -8444.893437  17485.734607    406.494124  6  8  5 122       
PG08  -4566.507753 -14075.146200  22284.158222     16.039921  4  9  6 129       
PG09 -10008.549455 -14668.377614  19750.989867      4.499169  7 10  7 104       
PG10 -19524.085384  -2377.188419  17677.877824   -147.296705  6  6  5  96       
PG11    950.090470 -18823.383346 -19184.986007   -531.823717  5  8  5 119       
PG12   6965.816958  21916.255562 -13550.044808    241.789882  4  9  6 122       
PG13 -15187.462285  -1704.041210  21620.947178    -54.890252  6  5  3 106       
PG14  16387.044227  -3500.212337 -20338.067389    121.497775  6  6  4 120       
PG15  -1747.285283  25539.919337  -6508.555477   -211.036088  6  9  7  81       
PG16   7628.829981 -13149.847373  21671.897873   -185.220203  5  8  6 122       
PG17 -15983.883526   2520.157848 -20746.504542   -133.505490  5  8  4 123       
PG18  20819.374155  15572.565416  -5723.113969    354.134960  5  8  4 113       
PG19   7920.385215 -24912.011231  -3197.975474   -485.384188  7 11  4 112       
PG20 -13298.474138 -21433.831823  -8630.820940    249.804130  7  5  5 110       
PG21  22646.432025   5168.565830  13906.789438   -391.595338  7  8  5 132       
PG22  20582.660643   3847.041153 -16218.768763    281.029555  5  7  3 109       
PG23  -3015.295364 -22523.648551  13519.968548    -62.854047  7 10  7 112       
PG24   1252.836417  15415.266822 -21602.116293    -37.499781  9  8  5 123       
PG25  17060.523389  20359.041458  -2066.024040     16.825401  5  7  5 109       
PG26 -12350.230908  22934.797476   3684.072020   -102.322070  4  4  4 111       
PG27  12511.702471 -21953.500294   8050.650269     25.306623  3  7  5 130       
PG28 -19941.212493 -10152.656929 -13790.605088    394.112964  6  5  2 111       
PG29   7940.545774  16558.096827  19228.621088    569.319812  6  9  6 128       
PG30 -25127.805551  -2228.357902   8393.515586    -75.884622  6  6  4  94       
PG31  25698.298575  -6908.582961   2726.296497    329.955596  5  7  4 118       
PG32    327.563335 -20093.764198 -17612.048019   -308.161041  5  6  9 100       
*  2014 10 27  8  0  0.00000000
PG01  -2861.980309 -15009.024030 -21769.057335     22.942653  8  8  7 101       
PG02 -19957.439522  14210.979434   9940.240471    526.546476  5  6  7 124       
PG04   1093.538189 -16494.812623 -21054.060232     -2.145813  3  5  4 120       
PG05  -9153.347569  12582.526521  21469.688191   -324.945801  3  7  3 134       
PG06 -25761.907280   5886.731361  -2592.680203      3.308958  3  5  2 112       
PG07 -16406.215861  -9021.683262  19071.655274    406.497503  6  8  6 124       
PG08  -2080.051037 -14383.166766  22403.968806     16.040084  5  9  7 133       
PG09  -9322.031150 -16743.647521  18388.384701      4.493927  8 10  7 105       
PG10 -20775.290128  -3919.813551  15966.282547   -147.299400  7  6  4  97       
PG11   2778.695935 -19796.417404 -17938.848811   -531.826470  5  8  5 126       
PG12   5768.131129  20774.123956 -15729.170908    241.792310  4  9  6 125       
PG13 -14283.125976  -4048.410691  21906.256414    -54.893518  7  5  3 102       
PG14  15648.383450  -1189.866960 -21172.758875    121.494792  6  6  4 116       
PG15  -2210.237233  26037.889752  -3769.772205   -211.038398  6  8  7  95       
PG16   9314.616120 -11286.278875  22090.025714   -185.217753  5  8  6 128       
PG17 -15294.746198    146.727035 -21419.706157   -133.507930  5  7  5 128       
PG18  20982.174066  16191.260952  -3016.243983    354.137223  5  8  4 112       
PG19   8238.701131 -24990.132912   -312.118714   -485.386252  7 10  4 101       
PG20 -12268.330888 -20927.796786 -11095.926242    249.807821  7  5  5 116       
PG21  21159.914789   5786.068950  15916.882364   -391.597215  7  8  6 127       
PG22  21683.888431   5273.607784 -14309.955131    281.033148  6  7  3 104       
PG23  -2386.115342 -23813.113610  11176.233683    -62.856802  7 10  7 117       
PG24  -1116.720962  16023.069433 -21152.349858    -37.500166  9  8  6 121       
PG25  16649.331496  20220.667462  -4910.256995     16.824071  5  7  5  84       
PG26 -12340.815003  22229.333857   6501.656846   -102.333582  4  3  5 115       
PG27  12450.672885 -20858.896264  10641.175831     25.309130  4  7  4 130       
PG28 -20824.252356 -11404.910058 -11417.646865    394.115250  7  5  2 118       
PG29   7168.751933  18518.390424  17682.672317    569.321749  6 10  7 127       
PG30 -24082.574284  -2656.550815  10941.513380    -75.887333  6  6  4  92       
PG31  25866.197355  -6758.046987   -137.333942    329.954893  6  7  3 116       
PG32   1767.178156 -18574.148213 -19080.525460   -308.153259  4  6  9 106       
EOF
